[{"OBJECT_NAME":"STARLINK-4616","OBJECT_ID":"2022-107AL","EPOCH":"2026-03-09T19:54:06.229728","MEAN_MOTION":15.0883789,"ECCENTRICITY":0.0001287,"INCLINATION":53.2167,"RA_OF_ASC_NODE":253.5681,"ARG_OF_PERICENTER":84.3431,"MEAN_ANOMALY":275.7708,"EPHEMERIS_TYPE":0,"CLASSIFICATION_TYPE":"U","NORAD_CAT_ID":53734,"ELEMENT_SET_NO":999,"REV_AT_EPOCH":19460,"BSTAR":6.1401084e-5,"MEAN_MOTION_DOT":6.89e-6,"MEAN_MOTION_DDOT":0},{"OBJECT_NAME":"LEMUR-2-ESPERANZA","OBJECT_ID":"2025-061B","EPOCH":"2026-03-09T20:59:51.017856","MEAN_MOTION":15.12770808,"ECCENTRICITY":0.00169494,"INCLINATION":97.5568,"RA_OF_ASC_NODE":45.1407,"ARG_OF_PERICENTER":244.877,"MEAN_ANOMALY":115.0702,"EPHEMERIS_TYPE":0,"CLASSIFICATION_TYPE":"U","NORAD_CAT_ID":63352,"ELEMENT_SET_NO":999,"REV_AT_EPOCH":5257,"BSTAR":0.00034972806,"MEAN_MOTION_DOT":6.09e-5,"MEAN_MOTION_DDOT":0}]
