STARLINK-4616           
1 53734U 22107AL  26068.82923877  .00000689  00000+0  61401-4 0  9990
2 53734  53.2167 253.5681 0001287  84.3431 275.7708 15.08837890194604
LEMUR-2-ESPERANZA       
1 63352U 25061B   26068.87489604  .00006090  00000+0  34973-3 0  9994
2 63352  97.5568  45.1407 0016949 244.8770 115.0702 15.12770808 52577
